STARLINK-37190
1 68396U 26063S   26092.75002314 -.01849746  10274-2 -36843-2 0  9993
2 68396  97.2814 233.5533 0001496  73.3323 103.5772 16.00006807  2320
